{
"type": "FeatureCollection",
"name": "area",
"crs": { "type": "name", "properties": { "name": "urn:ogc:def:crs:OGC:1.3:CRS84" } },
"features": [
{ "type": "Feature", "properties": { }, "geometry": { "type": "Polygon", "coordinates": [ [ [ 116.528502452393582, 7.432711970760847 ], [ 119.904683846908597, 5.160282185991131 ], [ 118.378909562848932, 3.764361032489735 ], [ 119.222954911477672, 1.264688269243047 ], [ 118.443836128128055, -0.00137975370008 ], [ 116.528502452393582, -3.832047105169028 ], [ 113.769123428030355, -4.189143214204272 ], [ 109.970919359200977, -3.182781452377682 ], [ 108.704851336257846, -0.910351667607966 ], [ 108.412681792501743, 1.394541399801316 ], [ 109.224263858490929, 2.400903161627905 ], [ 110.912354555748436, 2.206123465790501 ], [ 111.269450664783676, 3.212485227617089 ], [ 112.957541362041184, 3.212485227617089 ], [ 113.86651327594906, 4.965502490153727 ], [ 114.743021907217383, 5.095355620711997 ], [ 115.294897712090034, 5.614768142945074 ], [ 115.944163364881376, 6.328960361015556 ], [ 115.944163364881376, 6.328960361015556 ], [ 116.528502452393582, 7.432711970760847 ] ] ] } },
{ "type": "Feature", "properties": { }, "geometry": { "type": "Polygon", "coordinates": [ [ [ 95.167662475558288, 6.036790817259453 ], [ 95.427368736674822, 4.511016533199788 ], [ 96.596046911699247, 3.602044619291901 ], [ 97.050532868653193, 3.180021944977526 ], [ 97.991968065200652, 1.946417204673965 ], [ 98.803550131189837, 0.550496051172569 ], [ 98.511380587433734, 1.52439453035959 ], [ 99.258036088143783, -0.196159449537481 ], [ 100.296861132609934, -1.494690755120176 ], [ 101.855098699309167, -3.767120539889891 ], [ 102.926387026414886, -4.805945584356046 ], [ 104.517087875753688, -5.942160476740906 ], [ 105.945472311894662, -5.877233911461769 ], [ 106.335031703569456, -4.383922910041672 ], [ 106.46488483412773, -3.247708017656812 ], [ 106.984297356360813, -2.955538473900706 ], [ 106.627201247325573, -1.981639994713685 ], [ 105.977935594534216, -1.364837624561906 ], [ 104.971573832707634, -1.592080603038877 ], [ 104.257381614637154, -0.585718841212289 ], [ 104.12752848407888, 0.388179637974732 ], [ 103.153630004891866, 1.264688269243051 ], [ 102.114804960425701, 2.271050031069638 ], [ 100.556567393726468, 2.498293009546611 ], [ 99.582668914539454, 3.602044619291901 ], [ 98.576307152712857, 4.511016533199788 ], [ 98.02443134784022, 5.095355620712001 ], [ 97.342702412409295, 5.549841577665942 ], [ 95.167662475558288, 6.036790817259453 ] ] ] } }
]
}
